ONEWEB-0431             
1 51630U 22012J   23345.62890070  .00000303  00000+0  83164-3 0  9991
2 51630  87.8918 218.7101 0001808 102.8416 257.2914 13.10378598 89043
ONEWEB-0434             
1 51631U 22012K   23345.60628108 -.00000600  00000+0 -17562-2 0  9991
2 51631  87.8921 218.7165 0001201  92.5761 267.5504 13.10372239 89026
ONEWEB-0435             
1 51632U 22012L   23345.69077552 -.00000376  00000+0 -11120-2 0  9996
2 51632  87.8922 218.6907 0001236 101.2316 258.8950 13.10375983 90303
ONEWEB-0436             
1 51633U 22012M   23345.61295337  .00000038  00000+0  63860-4 0  9995
2 51633  87.9201 188.4756 0001268  90.8594 269.2683 13.17648039 92715
ONEWEB-0438             
1 51634U 22012N   23345.59816394 -.00000460  00000+0 -13543-2 0  9997
2 51634  87.8915 218.7097 0001512  64.2972 295.8312 13.10373078 89046
ONEWEB-0439             
1 51635U 22012P   23345.60138005 -.00021350  00000+0 -61256-1 0  9990
2 51635  87.8922 218.6927 0000773  86.9537 273.1679 13.10467607 89027
ONEWEB-0442             
1 51636U 22012Q   23345.60450805  .00000646  00000+0  16311-2 0  9992
2 51636  87.9222 188.5065 0002301  81.4040 278.7352 13.17656967 92702
ONEWEB-0443             
1 51637U 22012R   23345.62348331  .00000289  00000+0  71185-3 0  9999
2 51637  87.9208 188.5068 0000882  62.6898 297.4323 13.17650755 92754
